STARLINK-2414           
1 48095U 21027D   26068.53448898  .00007537  00000+0  26621-3 0  9990
2 48095  53.1610 166.0306 0001397  94.3666 265.7494 15.30216265272504
LYNK TOWER 5            
1 59121U 24043Z   26068.92489786  .00009048  00000+0  31902-3 0  9994
2 59121  97.5458 204.7305 0010406 234.6422 125.3846 15.29454506111860
